{
    "CCSDS_OMM_VERS": "3.0",
    "COMMENT": "GENERATED VIA SPACE-TRACK.ORG API",
    "CREATION_DATE": "2025-11-23T21:08:43",
    "ORIGINATOR": "18 SPCS",
    "OBJECT_NAME": "COSMOS 2477 (GLONASS)",
    "OBJECT_ID": "2011-064B",
    "CENTER_NAME": "EARTH",
    "REF_FRAME": "TEME",
    "TIME_SYSTEM": "UTC",
    "MEAN_ELEMENT_THEORY": "SGP4",
    "EPOCH": "2025-11-23T05:03:30.223872",
    "MEAN_MOTION": "2.13102867",
    "ECCENTRICITY": "0.00207293",
    "INCLINATION": "65.1585",
    "RA_OF_ASC_NODE": "79.9095",
    "ARG_OF_PERICENTER": "232.9181",
    "MEAN_ANOMALY": "133.7873",
    "EPHEMERIS_TYPE": "0",
    "CLASSIFICATION_TYPE": "U",
    "NORAD_CAT_ID": "37868",
    "ELEMENT_SET_NO": "999",
    "REV_AT_EPOCH": "10937",
    "BSTAR": "0.00000000000000",
    "MEAN_MOTION_DOT": "0.00000003",
    "MEAN_MOTION_DDOT": "0.0000000000000",
    "SEMIMAJOR_AXIS": "25507.955",
    "PERIOD": "675.730",
    "APOAPSIS": "19182.697",
    "PERIAPSIS": "19076.944",
    "OBJECT_TYPE": "PAYLOAD",
    "RCS_SIZE": "LARGE",
    "COUNTRY_CODE": "CIS",
    "LAUNCH_DATE": "2011-11-04",
    "SITE": "TTMTR",
    "DECAY_DATE": null,
    "FILE": "4896238",
    "GP_ID": "303330470",
    "TLE_LINE0": "0 COSMOS 2477 (GLONASS)",
    "TLE_LINE1": "1 37868U 11064B   25327.21076648  .00000003  00000-0  00000-0 0  9990",
    "TLE_LINE2": "2 37868  65.1585  79.9095 0020729 232.9181 133.7873  2.13102867109371"
}